{
"type": "FeatureCollection",
"name": "chicago_cluster_centroids",
"crs": { "type": "name", "properties": { "name": "urn:ogc:def:crs:OGC:1.3:CRS84" } },
"features": [
{ "type": "Feature", "properties": { "cluster_id": 0, "centroid_lon": -87.669919072987312, "centroid_lat": 42.009033776168224, "num_points": 8982 }, "geometry": { "type": "Point", "coordinates": [ -87.669919072987312, 42.009033776168224 ] } },
{ "type": "Feature", "properties": { "cluster_id": 1, "centroid_lon": -87.693547038654415, "centroid_lat": 42.00000695823779, "num_points": 15606 }, "geometry": { "type": "Point", "coordinates": [ -87.693547038654415, 42.00000695823779 ] } },
{ "type": "Feature", "properties": { "cluster_id": 2, "centroid_lon": -87.657103096357332, "centroid_lat": 41.966170524693581, "num_points": 9585 }, "geometry": { "type": "Point", "coordinates": [ -87.657103096357332, 41.966170524693581 ] } },
{ "type": "Feature", "properties": { "cluster_id": 3, "centroid_lon": -87.688596544281268, "centroid_lat": 41.973052382713234, "num_points": 7114 }, "geometry": { "type": "Point", "coordinates": [ -87.688596544281268, 41.973052382713234 ] } },
{ "type": "Feature", "properties": { "cluster_id": 4, "centroid_lon": -87.684201827441882, "centroid_lat": 41.947383526390517, "num_points": 6348 }, "geometry": { "type": "Point", "coordinates": [ -87.684201827441882, 41.947383526390517 ] } },
{ "type": "Feature", "properties": { "cluster_id": 5, "centroid_lon": -87.65410385862495, "centroid_lat": 41.943567113415135, "num_points": 16190 }, "geometry": { "type": "Point", "coordinates": [ -87.65410385862495, 41.943567113415135 ] } },
{ "type": "Feature", "properties": { "cluster_id": 6, "centroid_lon": -87.648518637632762, "centroid_lat": 41.922303790629478, "num_points": 14288 }, "geometry": { "type": "Point", "coordinates": [ -87.648518637632762, 41.922303790629478 ] } },
{ "type": "Feature", "properties": { "cluster_id": 7, "centroid_lon": -87.629436923268614, "centroid_lat": 41.89699722591179, "num_points": 35458 }, "geometry": { "type": "Point", "coordinates": [ -87.629436923268614, 41.89699722591179 ] } },
{ "type": "Feature", "properties": { "cluster_id": 8, "centroid_lon": -87.602566438999986, "centroid_lat": 41.893434847999991, "num_points": 21 }, "geometry": { "type": "Point", "coordinates": [ -87.602566438999986, 41.893434848 ] } },
{ "type": "Feature", "properties": { "cluster_id": 9, "centroid_lon": -87.811505484721991, "centroid_lat": 42.004967631666489, "num_points": 1856 }, "geometry": { "type": "Point", "coordinates": [ -87.811505484721991, 42.004967631666489 ] } },
{ "type": "Feature", "properties": { "cluster_id": 10, "centroid_lon": -87.799553860053223, "centroid_lat": 41.986223909992539, "num_points": 7233 }, "geometry": { "type": "Point", "coordinates": [ -87.799553860053223, 41.986223909992539 ] } },
{ "type": "Feature", "properties": { "cluster_id": 11, "centroid_lon": -87.77000229739923, "centroid_lat": 41.976199451844685, "num_points": 5666 }, "geometry": { "type": "Point", "coordinates": [ -87.77000229739923, 41.976199451844685 ] } },
{ "type": "Feature", "properties": { "cluster_id": 12, "centroid_lon": -87.755460361854162, "centroid_lat": 41.989911446687373, "num_points": 4443 }, "geometry": { "type": "Point", "coordinates": [ -87.755460361854162, 41.989911446687373 ] } },
{ "type": "Feature", "properties": { "cluster_id": 13, "centroid_lon": -87.718010501880627, "centroid_lat": 41.985538420435795, "num_points": 5085 }, "geometry": { "type": "Point", "coordinates": [ -87.718010501880627, 41.985538420435795 ] } },
{ "type": "Feature", "properties": { "cluster_id": 14, "centroid_lon": -87.720546121480169, "centroid_lat": 41.967218389173716, "num_points": 7639 }, "geometry": { "type": "Point", "coordinates": [ -87.720546121480169, 41.967218389173716 ] } },
{ "type": "Feature", "properties": { "cluster_id": 15, "centroid_lon": -87.760315719958484, "centroid_lat": 41.952971311241384, "num_points": 13779 }, "geometry": { "type": "Point", "coordinates": [ -87.760315719958484, 41.952971311241384 ] } },
{ "type": "Feature", "properties": { "cluster_id": 16, "centroid_lon": -87.723015014191418, "centroid_lat": 41.953050902990213, "num_points": 12261 }, "geometry": { "type": "Point", "coordinates": [ -87.723015014191418, 41.953050902990213 ] } },
{ "type": "Feature", "properties": { "cluster_id": 17, "centroid_lon": -87.802273298506378, "centroid_lat": 41.946474817175051, "num_points": 8146 }, "geometry": { "type": "Point", "coordinates": [ -87.802273298506378, 41.946474817175051 ] } },
{ "type": "Feature", "properties": { "cluster_id": 18, "centroid_lon": -87.798854254799991, "centroid_lat": 41.928491404035761, "num_points": 3020 }, "geometry": { "type": "Point", "coordinates": [ -87.798854254799991, 41.928491404035761 ] } },
{ "type": "Feature", "properties": { "cluster_id": 19, "centroid_lon": -87.76321827768335, "centroid_lat": 41.926987638469555, "num_points": 18313 }, "geometry": { "type": "Point", "coordinates": [ -87.76321827768335, 41.926987638469555 ] } },
{ "type": "Feature", "properties": { "cluster_id": 20, "centroid_lon": -87.733666452687345, "centroid_lat": 41.922957452205523, "num_points": 4238 }, "geometry": { "type": "Point", "coordinates": [ -87.733666452687345, 41.922957452205523 ] } },
{ "type": "Feature", "properties": { "cluster_id": 21, "centroid_lon": -87.711754470648017, "centroid_lat": 41.93854472462494, "num_points": 9401 }, "geometry": { "type": "Point", "coordinates": [ -87.711754470648017, 41.93854472462494 ] } },
{ "type": "Feature", "properties": { "cluster_id": 22, "centroid_lon": -87.697423524063169, "centroid_lat": 41.923444572020323, "num_points": 16732 }, "geometry": { "type": "Point", "coordinates": [ -87.697423524063169, 41.923444572020323 ] } },
{ "type": "Feature", "properties": { "cluster_id": 23, "centroid_lon": -87.721310902569954, "centroid_lat": 41.901709012698404, "num_points": 16240 }, "geometry": { "type": "Point", "coordinates": [ -87.721310902569954, 41.901709012698404 ] } },
{ "type": "Feature", "properties": { "cluster_id": 24, "centroid_lon": -87.672694183330933, "centroid_lat": 41.900859101879561, "num_points": 21596 }, "geometry": { "type": "Point", "coordinates": [ -87.672694183330933, 41.900859101879561 ] } },
{ "type": "Feature", "properties": { "cluster_id": 25, "centroid_lon": -87.759083488412159, "centroid_lat": 41.890767468292836, "num_points": 36218 }, "geometry": { "type": "Point", "coordinates": [ -87.759083488412159, 41.890767468292836 ] } },
{ "type": "Feature", "properties": { "cluster_id": 26, "centroid_lon": -87.729210837212207, "centroid_lat": 41.878831988909894, "num_points": 10344 }, "geometry": { "type": "Point", "coordinates": [ -87.729210837212207, 41.878831988909894 ] } },
{ "type": "Feature", "properties": { "cluster_id": 27, "centroid_lon": -87.706530154934811, "centroid_lat": 41.87842473461297, "num_points": 8883 }, "geometry": { "type": "Point", "coordinates": [ -87.706530154934811, 41.87842473461297 ] } },
{ "type": "Feature", "properties": { "cluster_id": 28, "centroid_lon": -87.660246747612092, "centroid_lat": 41.875519776359901, "num_points": 34390 }, "geometry": { "type": "Point", "coordinates": [ -87.660246747612092, 41.875519776359901 ] } },
{ "type": "Feature", "properties": { "cluster_id": 29, "centroid_lon": -87.717587578457341, "centroid_lat": 41.859878145783199, "num_points": 13736 }, "geometry": { "type": "Point", "coordinates": [ -87.717587578457341, 41.859878145783199 ] } },
{ "type": "Feature", "properties": { "cluster_id": 30, "centroid_lon": -87.710854817522886, "centroid_lat": 41.843437183772494, "num_points": 13657 }, "geometry": { "type": "Point", "coordinates": [ -87.710854817522886, 41.843437183772494 ] } },
{ "type": "Feature", "properties": { "cluster_id": 31, "centroid_lon": -87.667140319630079, "centroid_lat": 41.852692887217465, "num_points": 11340 }, "geometry": { "type": "Point", "coordinates": [ -87.667140319630079, 41.852692887217465 ] } },
{ "type": "Feature", "properties": { "cluster_id": 32, "centroid_lon": -87.627069587962666, "centroid_lat": 41.880068433898458, "num_points": 26119 }, "geometry": { "type": "Point", "coordinates": [ -87.627069587962666, 41.880068433898458 ] } },
{ "type": "Feature", "properties": { "cluster_id": 33, "centroid_lon": -87.62257814781438, "centroid_lat": 41.858578509149091, "num_points": 9390 }, "geometry": { "type": "Point", "coordinates": [ -87.62257814781438, 41.858578509149091 ] } },
{ "type": "Feature", "properties": { "cluster_id": 34, "centroid_lon": -87.633450500530316, "centroid_lat": 41.845577897050141, "num_points": 4288 }, "geometry": { "type": "Point", "coordinates": [ -87.633450500530316, 41.845577897050141 ] } },
{ "type": "Feature", "properties": { "cluster_id": 35, "centroid_lon": -87.618817379439818, "centroid_lat": 41.834361937197642, "num_points": 4827 }, "geometry": { "type": "Point", "coordinates": [ -87.618817379439818, 41.834361937197642 ] } },
{ "type": "Feature", "properties": { "cluster_id": 36, "centroid_lon": -87.603874084408545, "centroid_lat": 41.824413041543153, "num_points": 1263 }, "geometry": { "type": "Point", "coordinates": [ -87.603874084408545, 41.824413041543153 ] } },
{ "type": "Feature", "properties": { "cluster_id": 37, "centroid_lon": -87.631743320261705, "centroid_lat": 41.805088796081762, "num_points": 2862 }, "geometry": { "type": "Point", "coordinates": [ -87.631743320261705, 41.805088796081762 ] } },
{ "type": "Feature", "properties": { "cluster_id": 38, "centroid_lon": -87.617724609707963, "centroid_lat": 41.812390080704162, "num_points": 6321 }, "geometry": { "type": "Point", "coordinates": [ -87.617724609707963, 41.812390080704162 ] } },
{ "type": "Feature", "properties": { "cluster_id": 39, "centroid_lon": -87.595078925722063, "centroid_lat": 41.808593294842446, "num_points": 3256 }, "geometry": { "type": "Point", "coordinates": [ -87.595078925722063, 41.808593294842446 ] } },
{ "type": "Feature", "properties": { "cluster_id": 40, "centroid_lon": -87.618687833552201, "centroid_lat": 41.791485766241131, "num_points": 4960 }, "geometry": { "type": "Point", "coordinates": [ -87.618687833552201, 41.791485766241131 ] } },
{ "type": "Feature", "properties": { "cluster_id": 41, "centroid_lon": -87.589355647531292, "centroid_lat": 41.795501514119714, "num_points": 6791 }, "geometry": { "type": "Point", "coordinates": [ -87.589355647531292, 41.795501514119714 ] } },
{ "type": "Feature", "properties": { "cluster_id": 42, "centroid_lon": -87.598140688676025, "centroid_lat": 41.777847166594903, "num_points": 7766 }, "geometry": { "type": "Point", "coordinates": [ -87.598140688676025, 41.777847166594903 ] } },
{ "type": "Feature", "properties": { "cluster_id": 43, "centroid_lon": -87.575743137526885, "centroid_lat": 41.762771656931356, "num_points": 14641 }, "geometry": { "type": "Point", "coordinates": [ -87.575743137526885, 41.762771656931356 ] } },
{ "type": "Feature", "properties": { "cluster_id": 44, "centroid_lon": -87.617129255473543, "centroid_lat": 41.741675640550632, "num_points": 14271 }, "geometry": { "type": "Point", "coordinates": [ -87.617129255473543, 41.741675640550632 ] } },
{ "type": "Feature", "properties": { "cluster_id": 45, "centroid_lon": -87.585331066418689, "centroid_lat": 41.745559061324208, "num_points": 4636 }, "geometry": { "type": "Point", "coordinates": [ -87.585331066418689, 41.745559061324208 ] } },
{ "type": "Feature", "properties": { "cluster_id": 46, "centroid_lon": -87.558845689782601, "centroid_lat": 41.742040256574882, "num_points": 4848 }, "geometry": { "type": "Point", "coordinates": [ -87.558845689782601, 41.742040256574882 ] } },
{ "type": "Feature", "properties": { "cluster_id": 47, "centroid_lon": -87.597333872891269, "centroid_lat": 41.728142260240432, "num_points": 653 }, "geometry": { "type": "Point", "coordinates": [ -87.597333872891269, 41.728142260240432 ] } },
{ "type": "Feature", "properties": { "cluster_id": 48, "centroid_lon": -87.576550634800242, "centroid_lat": 41.730740485491239, "num_points": 4340 }, "geometry": { "type": "Point", "coordinates": [ -87.576550634800242, 41.730740485491239 ] } },
{ "type": "Feature", "properties": { "cluster_id": 49, "centroid_lon": -87.622868165654452, "centroid_lat": 41.706541841526125, "num_points": 10201 }, "geometry": { "type": "Point", "coordinates": [ -87.622868165654452, 41.706541841526125 ] } },
{ "type": "Feature", "properties": { "cluster_id": 50, "centroid_lon": -87.600873989929383, "centroid_lat": 41.701914335177214, "num_points": 2195 }, "geometry": { "type": "Point", "coordinates": [ -87.600873989929383, 41.701914335177214 ] } },
{ "type": "Feature", "properties": { "cluster_id": 51, "centroid_lon": -87.572967184049986, "centroid_lat": 41.709960668475631, "num_points": 6423 }, "geometry": { "type": "Point", "coordinates": [ -87.572967184049986, 41.709960668475631 ] } },
{ "type": "Feature", "properties": { "cluster_id": 52, "centroid_lon": -87.535245542943613, "centroid_lat": 41.705907961510746, "num_points": 3352 }, "geometry": { "type": "Point", "coordinates": [ -87.535245542943613, 41.705907961510746 ] } },
{ "type": "Feature", "properties": { "cluster_id": 53, "centroid_lon": -87.636034411043411, "centroid_lat": 41.674134581634931, "num_points": 5851 }, "geometry": { "type": "Point", "coordinates": [ -87.636034411043411, 41.674134581634931 ] } },
{ "type": "Feature", "properties": { "cluster_id": 54, "centroid_lon": -87.607489354084905, "centroid_lat": 41.659232770886796, "num_points": 1802 }, "geometry": { "type": "Point", "coordinates": [ -87.607489354084905, 41.659232770886796 ] } },
{ "type": "Feature", "properties": { "cluster_id": 55, "centroid_lon": -87.549318224057544, "centroid_lat": 41.659494631463886, "num_points": 1772 }, "geometry": { "type": "Point", "coordinates": [ -87.549318224057544, 41.659494631463886 ] } },
{ "type": "Feature", "properties": { "cluster_id": 56, "centroid_lon": -87.586319554837843, "centroid_lat": 41.659851871162168, "num_points": 74 }, "geometry": { "type": "Point", "coordinates": [ -87.586319554837843, 41.659851871162168 ] } },
{ "type": "Feature", "properties": { "cluster_id": 57, "centroid_lon": -87.527770762056619, "centroid_lat": 41.652507140867911, "num_points": 53 }, "geometry": { "type": "Point", "coordinates": [ -87.527770762056619, 41.652507140867911 ] } },
{ "type": "Feature", "properties": { "cluster_id": 58, "centroid_lon": -87.577855248214291, "centroid_lat": 41.659084677928561, "num_points": 14 }, "geometry": { "type": "Point", "coordinates": [ -87.577855248214291, 41.659084677928561 ] } },
{ "type": "Feature", "properties": { "cluster_id": 59, "centroid_lon": -87.760086797048118, "centroid_lat": 41.798721206471697, "num_points": 10952 }, "geometry": { "type": "Point", "coordinates": [ -87.760086797048118, 41.798721206471697 ] } },
{ "type": "Feature", "properties": { "cluster_id": 60, "centroid_lon": -87.725172066545326, "centroid_lat": 41.808413421756526, "num_points": 6169 }, "geometry": { "type": "Point", "coordinates": [ -87.725172066545326, 41.808413421756526 ] } },
{ "type": "Feature", "properties": { "cluster_id": 61, "centroid_lon": -87.696452162097714, "centroid_lat": 41.816511583471637, "num_points": 10470 }, "geometry": { "type": "Point", "coordinates": [ -87.696452162097714, 41.816511583471637 ] } },
{ "type": "Feature", "properties": { "cluster_id": 62, "centroid_lon": -87.675443799325762, "centroid_lat": 41.830617365041007, "num_points": 5194 }, "geometry": { "type": "Point", "coordinates": [ -87.675443799325762, 41.830617365041007 ] } },
{ "type": "Feature", "properties": { "cluster_id": 63, "centroid_lon": -87.647817074657439, "centroid_lat": 41.836730992918881, "num_points": 4697 }, "geometry": { "type": "Point", "coordinates": [ -87.647817074657439, 41.836730992918881 ] } },
{ "type": "Feature", "properties": { "cluster_id": 64, "centroid_lon": -87.662093237084491, "centroid_lat": 41.807644439321699, "num_points": 10286 }, "geometry": { "type": "Point", "coordinates": [ -87.662093237084491, 41.807644439321699 ] } },
{ "type": "Feature", "properties": { "cluster_id": 65, "centroid_lon": -87.723812875744017, "centroid_lat": 41.793338665782343, "num_points": 4383 }, "geometry": { "type": "Point", "coordinates": [ -87.723812875744017, 41.793338665782343 ] } },
{ "type": "Feature", "properties": { "cluster_id": 66, "centroid_lon": -87.696204979264635, "centroid_lat": 41.794668039500287, "num_points": 8721 }, "geometry": { "type": "Point", "coordinates": [ -87.696204979264635, 41.794668039500287 ] } },
{ "type": "Feature", "properties": { "cluster_id": 67, "centroid_lon": -87.760164657736695, "centroid_lat": 41.778422649666979, "num_points": 5336 }, "geometry": { "type": "Point", "coordinates": [ -87.760164657736695, 41.778422649666979 ] } },
{ "type": "Feature", "properties": { "cluster_id": 68, "centroid_lon": -87.726464813973294, "centroid_lat": 41.772111687783841, "num_points": 9174 }, "geometry": { "type": "Point", "coordinates": [ -87.726464813973294, 41.772111687783841 ] } },
{ "type": "Feature", "properties": { "cluster_id": 69, "centroid_lon": -87.693500795935037, "centroid_lat": 41.774535981959247, "num_points": 13374 }, "geometry": { "type": "Point", "coordinates": [ -87.693500795935037, 41.774535981959247 ] } },
{ "type": "Feature", "properties": { "cluster_id": 70, "centroid_lon": -87.66517397927845, "centroid_lat": 41.775249739886497, "num_points": 11471 }, "geometry": { "type": "Point", "coordinates": [ -87.66517397927845, 41.775249739886497 ] } },
{ "type": "Feature", "properties": { "cluster_id": 71, "centroid_lon": -87.642190554151796, "centroid_lat": 41.776924694545777, "num_points": 10125 }, "geometry": { "type": "Point", "coordinates": [ -87.642190554151796, 41.776924694545777 ] } },
{ "type": "Feature", "properties": { "cluster_id": 72, "centroid_lon": -87.618412525289216, "centroid_lat": 41.76274360451832, "num_points": 16600 }, "geometry": { "type": "Point", "coordinates": [ -87.618412525289216, 41.76274360451832 ] } },
{ "type": "Feature", "properties": { "cluster_id": 73, "centroid_lon": -87.71006718952124, "centroid_lat": 41.745262050597944, "num_points": 10220 }, "geometry": { "type": "Point", "coordinates": [ -87.71006718952124, 41.745262050597944 ] } },
{ "type": "Feature", "properties": { "cluster_id": 74, "centroid_lon": -87.654626036008366, "centroid_lat": 41.74491407961559, "num_points": 14357 }, "geometry": { "type": "Point", "coordinates": [ -87.654626036008366, 41.74491407961559 ] } },
{ "type": "Feature", "properties": { "cluster_id": 75, "centroid_lon": -87.675775492067402, "centroid_lat": 41.713900045677768, "num_points": 5223 }, "geometry": { "type": "Point", "coordinates": [ -87.675775492067402, 41.713900045677768 ] } },
{ "type": "Feature", "properties": { "cluster_id": 76, "centroid_lon": -87.649260698052089, "centroid_lat": 41.717728955877895, "num_points": 8198 }, "geometry": { "type": "Point", "coordinates": [ -87.649260698052089, 41.717728955877895 ] } },
{ "type": "Feature", "properties": { "cluster_id": 77, "centroid_lon": -87.709427448211798, "centroid_lat": 41.695045909239546, "num_points": 3277 }, "geometry": { "type": "Point", "coordinates": [ -87.709427448211798, 41.695045909239546 ] } },
{ "type": "Feature", "properties": { "cluster_id": 78, "centroid_lon": -87.739372861677637, "centroid_lat": 41.688560585486847, "num_points": 152 }, "geometry": { "type": "Point", "coordinates": [ -87.739372861677637, 41.688560585486847 ] } },
{ "type": "Feature", "properties": { "cluster_id": 79, "centroid_lon": -87.730198652571417, "centroid_lat": 41.688484261214278, "num_points": 14 }, "geometry": { "type": "Point", "coordinates": [ -87.730198652571417, 41.688484261214278 ] } },
{ "type": "Feature", "properties": { "cluster_id": 80, "centroid_lon": -87.666088316067487, "centroid_lat": 41.689080707599445, "num_points": 6179 }, "geometry": { "type": "Point", "coordinates": [ -87.666088316067487, 41.689080707599445 ] } },
{ "type": "Feature", "properties": { "cluster_id": 81, "centroid_lon": -87.839607601284285, "centroid_lat": 41.966849038263021, "num_points": 2304 }, "geometry": { "type": "Point", "coordinates": [ -87.839607601284285, 41.966849038263021 ] } },
{ "type": "Feature", "properties": { "cluster_id": 82, "centroid_lon": -87.905270521261059, "centroid_lat": 41.975889678639703, "num_points": 1199 }, "geometry": { "type": "Point", "coordinates": [ -87.905270521261059, 41.975889678639703 ] } },
{ "type": "Feature", "properties": { "cluster_id": 83, "centroid_lon": -87.914153388828524, "centroid_lat": 41.953739650071448, "num_points": 70 }, "geometry": { "type": "Point", "coordinates": [ -87.914153388828524, 41.953739650071448 ] } },
{ "type": "Feature", "properties": { "cluster_id": 84, "centroid_lon": -87.882035064749999, "centroid_lat": 41.982369524272961, "num_points": 392 }, "geometry": { "type": "Point", "coordinates": [ -87.882035064749999, 41.982369524272961 ] } },
{ "type": "Feature", "properties": { "cluster_id": 85, "centroid_lon": -87.89459319569356, "centroid_lat": 41.953949284258066, "num_points": 62 }, "geometry": { "type": "Point", "coordinates": [ -87.89459319569356, 41.953949284258066 ] } },
{ "type": "Feature", "properties": { "cluster_id": 86, "centroid_lon": -87.863849583294112, "centroid_lat": 41.973386758647059, "num_points": 17 }, "geometry": { "type": "Point", "coordinates": [ -87.863849583294112, 41.973386758647059 ] } },
{ "type": "Feature", "properties": { "cluster_id": 87, "centroid_lon": -87.66245479371409, "centroid_lat": 41.987289061715565, "num_points": 10867 }, "geometry": { "type": "Point", "coordinates": [ -87.66245479371409, 41.987289061715565 ] } },
{ "type": "Feature", "properties": { "cluster_id": 88, "centroid_lon": -87.617468134166643, "centroid_lat": 41.650733269500002, "num_points": 12 }, "geometry": { "type": "Point", "coordinates": [ -87.617468134166643, 41.650733269500002 ] } },
{ "type": "Feature", "properties": { "cluster_id": 89, "centroid_lon": -87.933974587029425, "centroid_lat": 41.958810924499993, "num_points": 68 }, "geometry": { "type": "Point", "coordinates": [ -87.933974587029425, 41.958810924499993 ] } },
{ "type": "Feature", "properties": { "cluster_id": 90, "centroid_lon": -87.608953185249987, "centroid_lat": 41.891570263950001, "num_points": 20 }, "geometry": { "type": "Point", "coordinates": [ -87.608953185249987, 41.891570263950001 ] } },
{ "type": "Feature", "properties": { "cluster_id": 91, "centroid_lon": -87.721493052538463, "centroid_lat": 41.683832744153847, "num_points": 13 }, "geometry": { "type": "Point", "coordinates": [ -87.721493052538463, 41.683832744153847 ] } },
{ "type": "Feature", "properties": { "cluster_id": 92, "centroid_lon": -87.836433754000026, "centroid_lat": 41.986382969000005, "num_points": 38 }, "geometry": { "type": "Point", "coordinates": [ -87.836433754000026, 41.986382969 ] } },
{ "type": "Feature", "properties": { "cluster_id": 93, "centroid_lon": -87.718430903649988, "centroid_lat": 41.997325011149996, "num_points": 20 }, "geometry": { "type": "Point", "coordinates": [ -87.718430903649988, 41.997325011149996 ] } },
{ "type": "Feature", "properties": { "cluster_id": 94, "centroid_lon": -87.927441583000004, "centroid_lat": 41.955479690375, "num_points": 16 }, "geometry": { "type": "Point", "coordinates": [ -87.927441583, 41.955479690375 ] } },
{ "type": "Feature", "properties": { "cluster_id": 95, "centroid_lon": -87.693614397166655, "centroid_lat": 41.691761822333326, "num_points": 12 }, "geometry": { "type": "Point", "coordinates": [ -87.693614397166655, 41.691761822333326 ] } },
{ "type": "Feature", "properties": { "cluster_id": 96, "centroid_lon": -87.788160793666677, "centroid_lat": 41.968444374833339, "num_points": 12 }, "geometry": { "type": "Point", "coordinates": [ -87.788160793666677, 41.968444374833339 ] } },
{ "type": "Feature", "properties": { "cluster_id": 97, "centroid_lon": -87.806695305916662, "centroid_lat": 41.932314363499998, "num_points": 12 }, "geometry": { "type": "Point", "coordinates": [ -87.806695305916662, 41.932314363499998 ] } }
]
}
